0 IRIDIUM 33 DEB
1 34776U 97051LV  13282.27971027  .00029697  00000-0  55798-2 0  1979
2 34776 086.3813 113.6275 0024145 359.3000 059.2650 14.64338073242081
0 IRIDIUM 33 DEB
1 34776U 97051LV  13283.04402613  .00022743  00000-0  42738-2 0  1981
2 34776 086.3815 113.2905 0024050 356.8727 128.3014 14.64368929242199
0 IRIDIUM 33 DEB
1 34776U 97051LV  13283.49862671  .00034894  00000-0  65840-2 0  2007
2 34776 086.3785 113.0856 0024332 354.3565 005.7863 14.64369868242265
0 IRIDIUM 33 DEB
1 34776U 97051LV  13285.71089363  .00019833  00000-0  37207-2 0  2005
2 34776 086.3812 112.1159 0023789 347.5879 147.9198 14.64459753242587
0 IRIDIUM 33 DEB
1 34776U 97051LV  13286.73352587  .00020659  00000-0  38727-2 0  2016
2 34776 086.3805 111.6649 0023700 344.1299 139.3296 14.64492971242739
0 IRIDIUM 33 DEB
1 34776U 97051LV  13287.76018105  .00029675  00000-0  55520-2 0  2023
2 34776 086.3805 111.2125 0023593 340.4314 152.3096 14.64537449242880
0 IRIDIUM 33 DEB
1 34776U 97051LV  13289.52130284  .00029342  00000-0  54786-2 0  2037
2 34776 086.3799 110.4362 0023528 334.3637 077.9073 14.64631973243148
0 IRIDIUM 33 DEB
1 34776U 97051LV  13290.47344574  .00031395  00000-0  58555-2 0  2042
2 34776 086.3800 110.0163 0023475 331.0198 058.4080 14.64669833243286
0 IRIDIUM 33 DEB
1 34776U 97051LV  13291.50249238  .00026903  00000-0  50153-2 0  2054
2 34776 086.3800 109.5624 0023340 327.3244 084.6628 14.64718681243434
0 IRIDIUM 33 DEB
1 34776U 97051LV  13292.52847861  .00026165  00000-0  48727-2 0  2068
2 34776 086.3804 109.1102 0023441 323.7220 094.8695 14.64766513243581
0 IRIDIUM 33 DEB
1 34776U 97051LV  13293.70200262  .00029091  00000-0  54097-2 0  2076
2 34776 086.3803 108.5924 0023441 319.6048 163.2849 14.64816585243753
0 IRIDIUM 33 DEB
1 34776U 97051LV  13294.78332471  .00035631  00000-0  66133-2 0  2085
2 34776 086.3806 108.1159 0023382 315.8624 105.6306 14.64866052243914
0 IRIDIUM 33 DEB
1 34776U 97051LV  13295.68443787  .00034454  00000-0  63897-2 0  2095
2 34776 086.3812 107.7187 0023314 312.7097 177.8298 14.64910287244048
